{
  "links" : {
    "next" : "https://api.nasa.gov/neo/rest/v1/feed?start_date=2004-07-09&end_date=2004-07-09&detailed=true&api_key=t0TVs3DtDT2H8Oy2Zy8m2eVrNsAVKAexjcZXUckd",
    "prev" : "https://api.nasa.gov/neo/rest/v1/feed?start_date=2004-07-07&end_date=2004-07-07&detailed=true&api_key=t0TVs3DtDT2H8Oy2Zy8m2eVrNsAVKAexjcZXUckd",
    "self" : "https://api.nasa.gov/neo/rest/v1/feed?start_date=2004-07-08&end_date=2004-07-08&detailed=true&api_key=t0TVs3DtDT2H8Oy2Zy8m2eVrNsAVKAexjcZXUckd"
  },
  "element_count" : 5,
  "near_earth_objects" : {
    "2004-07-08" : [ {
      "links" : {
        "self" : "https://api.nasa.gov/neo/rest/v1/neo/3772844?api_key=t0TVs3DtDT2H8Oy2Zy8m2eVrNsAVKAexjcZXUckd"
      },
      "neo_reference_id" : "3772844",
      "name" : "(2017 FR91)",
      "nasa_jpl_url" : "http://ssd.jpl.nasa.gov/sbdb.cgi?sstr=3772844",
      "absolute_magnitude_h" : 26.93,
      "estimated_diameter" : {
        "kilometers" : {
          "estimated_diameter_min" : 0.0109283596,
          "estimated_diameter_max" : 0.0244365549
        },
        "meters" : {
          "estimated_diameter_min" : 10.928359587,
          "estimated_diameter_max" : 24.436554919
        },
        "miles" : {
          "estimated_diameter_min" : 0.0067905657,
          "estimated_diameter_max" : 0.0151841666
        },
        "feet" : {
          "estimated_diameter_min" : 35.8541992673,
          "estimated_diameter_max" : 80.1724268405
        }
      },
      "is_potentially_hazardous_asteroid" : false,
      "close_approach_data" : [ {
        "close_approach_date" : "2004-07-08",
        "epoch_date_close_approach" : 1089270000000,
        "relative_velocity" : {
          "kilometers_per_second" : "13.2792822505",
          "kilometers_per_hour" : "47805.416101944",
          "miles_per_hour" : "29704.4264662329"
        },
        "miss_distance" : {
          "astronomical" : "0.3864311367",
          "lunar" : "150.3217163086",
          "kilometers" : "57809276",
          "miles" : "35921016"
        },
        "orbiting_body" : "Earth"
      } ],
      "orbital_data" : {
        "orbit_id" : "10",
        "orbit_determination_date" : "2017-07-20 12:28:32",
        "orbit_uncertainty" : "3",
        "minimum_orbit_intersection" : ".000680305",
        "jupiter_tisserand_invariant" : "6.525",
        "epoch_osculation" : "2458000.5",
        "eccentricity" : ".3238728233809041",
        "semi_major_axis" : ".9072840415012338",
        "inclination" : ".2169938080394833",
        "ascending_node_longitude" : "199.7523792031614",
        "orbital_period" : "315.6554810846757",
        "perihelion_distance" : ".6134393973717919",
        "perihelion_argument" : "114.5060811797126",
        "aphelion_distance" : "1.201128685630676",
        "perihelion_time" : "2457922.205416019053",
        "mean_anomaly" : "89.29371394498312",
        "mean_motion" : "1.14048391861578",
        "equinox" : "J2000"
      }
    }, {
      "links" : {
        "self" : "https://api.nasa.gov/neo/rest/v1/neo/3418110?api_key=t0TVs3DtDT2H8Oy2Zy8m2eVrNsAVKAexjcZXUckd"
      },
      "neo_reference_id" : "3418110",
      "name" : "(2008 NP3)",
      "nasa_jpl_url" : "http://ssd.jpl.nasa.gov/sbdb.cgi?sstr=3418110",
      "absolute_magnitude_h" : 23.3,
      "estimated_diameter" : {
        "kilometers" : {
          "estimated_diameter_min" : 0.058150704,
          "estimated_diameter_max" : 0.130028927
        },
        "meters" : {
          "estimated_diameter_min" : 58.1507039646,
          "estimated_diameter_max" : 130.0289270043
        },
        "miles" : {
          "estimated_diameter_min" : 0.0361331611,
          "estimated_diameter_max" : 0.0807962044
        },
        "feet" : {
          "estimated_diameter_min" : 190.7831555951,
          "estimated_diameter_max" : 426.6041048727
        }
      },
      "is_potentially_hazardous_asteroid" : false,
      "close_approach_data" : [ {
        "close_approach_date" : "2004-07-08",
        "epoch_date_close_approach" : 1089270000000,
        "relative_velocity" : {
          "kilometers_per_second" : "16.311509864",
          "kilometers_per_hour" : "58721.4355104011",
          "miles_per_hour" : "36487.2164147823"
        },
        "miss_distance" : {
          "astronomical" : "0.2181318241",
          "lunar" : "84.8532791138",
          "kilometers" : "32632056",
          "miles" : "20276620"
        },
        "orbiting_body" : "Earth"
      } ],
      "orbital_data" : {
        "orbit_id" : "13",
        "orbit_determination_date" : "2017-06-14 06:16:58",
        "orbit_uncertainty" : "0",
        "minimum_orbit_intersection" : ".0155604",
        "jupiter_tisserand_invariant" : "6.001",
        "epoch_osculation" : "2458000.5",
        "eccentricity" : ".3346203283451472",
        "semi_major_axis" : "1.005948040037898",
        "inclination" : "1.432604082672295",
        "ascending_node_longitude" : "77.608374056614",
        "orbital_period" : "368.5205834497108",
        "perihelion_distance" : ".669337376582259",
        "perihelion_argument" : "328.9734281980121",
        "aphelion_distance" : "1.342558703493536",
        "perihelion_time" : "2458051.791935322264",
        "mean_anomaly" : "309.8939881643417",
        "mean_motion" : ".9768789483345817",
        "equinox" : "J2000"
      }
    } ]
  }
}